{"type": "FeatureCollection", "features": [ {"type": "Feature", "properties": {"norad_id": 40793, "name": "COSMOS 2251 DEB", "group": "cosmos-2251-debris", "lat": -27.57181000133944, "lon": 167.76772623670922, "alt_km": 723.7994000611097, "timestamp": "2025-12-06T07:31:40.634191+00:00", "meta": {"OBJECT_NAME": "COSMOS 2251 DEB", "OBJECT_ID": "1993-036BVW", "EPOCH": "2025-11-17T22:59:08.433600", "MEAN_MOTION": 14.0559149, "ECCENTRICITY": 0.02150611, "INCLINATION": 73.9793, "RA_OF_ASC_NODE": 208.5839, "ARG_OF_PERICENTER": 10.058, "MEAN_ANOMALY": 350.4754, "EPHEMERIS_TYPE": 0, "CLASSIFICATION_TYPE": "U", "NORAD_CAT_ID": 40793, "ELEMENT_SET_NO": 999, "REV_AT_EPOCH": 67897, "BSTAR": 0.0015211732, "MEAN_MOTION_DOT": 3.024e-05, "MEAN_MOTION_DDOT": 0}, "tle": {"line1": "1 40793U 93036BVW 25321.95773650  .00003024  00000+0  15212-2 0  9990", "line2": "2 40793  73.9793 208.5839 0215061  10.0580 350.4754 14.05591490678970"}}, "geometry": {"type": "Point", "coordinates": [167.76772623670922, -27.57181000133944]}}, {"type": "Feature", "properties": {"norad_id": 40794, "name": "COSMOS 2251 DEB", "group": "cosmos-2251-debris", "lat": -23.452080658078938, "lon": -35.63845196312088, "alt_km": 592.3457311011334, "timestamp": "2025-12-06T07:31:40.634201+00:00", "meta": {"OBJECT_NAME": "COSMOS 2251 DEB", "OBJECT_ID": "1993-036BVX", "EPOCH": "2025-11-30T04:39:36.279360", "MEAN_MOTION": 14.91253423, "ECCENTRICITY": 0.00103638, "INCLINATION": 73.9758, "RA_OF_ASC_NODE": 149.5129, "ARG_OF_PERICENTER": 264.0956, "MEAN_ANOMALY": 215.1976, "EPHEMERIS_TYPE": 0, "CLASSIFICATION_TYPE": "U", "NORAD_CAT_ID": 40794, "ELEMENT_SET_NO": 999, "REV_AT_EPOCH": 61737, "BSTAR": 0.0047311798, "MEAN_MOTION_DOT": 0.00047418, "MEAN_MOTION_DDOT": 0}, "tle": {"line1": "1 40794U 93036BVX 25334.19416990  .00047418  00000+0  47312-2 0  9993", "line2": "2 40794  73.9758 149.5129 0010363 264.0956 215.1976 14.91253423617370"}}, "geometry": {"type": "Point", "coordinates": [-35.63845196312088, -23.452080658078938]}}, {"type": "Feature", "properties": {"norad_id": 40796, "name": "COSMOS 2251 DEB", "group": "cosmos-2251-debris", "lat": 39.68674320070406, "lon": -38.86312709505503, "alt_km": 656.2828653926845, "timestamp": "2025-12-06T07:31:40.634211+00:00", "meta": {"OBJECT_NAME": "COSMOS 2251 DEB", "OBJECT_ID": "1993-036BVZ", "EPOCH": "2025-12-02T06:27:45.283968", "MEAN_MOTION": 14.81470556, "ECCENTRICITY": 0.005597, "INCLINATION": 74.0116, "RA_OF_ASC_NODE": 162.895, "ARG_OF_PERICENTER": 301.3277, "MEAN_ANOMALY": 235.9171, "EPHEMERIS_TYPE": 0, "CLASSIFICATION_TYPE": "U", "NORAD_CAT_ID": 40796, "ELEMENT_SET_NO": 999, "REV_AT_EPOCH": 76003, "BSTAR": 0.00090141, "MEAN_MOTION_DOT": 7.227e-05, "MEAN_MOTION_DDOT": 0}, "tle": {"line1": "1 40796U 93036BVZ 25336.26927412  .00007227  00000+0  90141-3 0  9994", "line2": "2 40796  74.0116 162.8950 0055970 301.3277 235.9171 14.81470556760032"}}, "geometry": {"type": "Point", "coordinates": [-38.86312709505503, 39.68674320070406]}}, {"type": "Feature", "properties": {"norad_id": 40797, "name": "COSMOS 2251 DEB", "group": "cosmos-2251-debris", "lat": -57.73692915922098, "lon": -44.114816218065286, "alt_km": 577.4450870162318, "timestamp": "2025-12-06T07:31:40.634221+00:00", "meta": {"OBJECT_NAME": "COSMOS 2251 DEB", "OBJECT_ID": "1993-036BWA", "EPOCH": "2025-11-19T18:43:16.602528", "MEAN_MOTION": 15.10509474, "ECCENTRICITY": 0.00703947, "INCLINATION": 73.92, "RA_OF_ASC_NODE": 143.0892, "ARG_OF_PERICENTER": 60.6639, "MEAN_ANOMALY": 300.156, "EPHEMERIS_TYPE": 0, "CLASSIFICATION_TYPE": "U", "NORAD_CAT_ID": 40797, "ELEMENT_SET_NO": 999, "REV_AT_EPOCH": 64297, "BSTAR": 0.00072810385, "MEAN_MOTION_DOT": 0.00012707, "MEAN_MOTION_DDOT": 0}, "tle": {"line1": "1 40797U 93036BWA 25323.78005327  .00012707  00000+0  72810-3 0  9992", "line2": "2 40797  73.9200 143.0892 0070394  60.6639 300.1560 15.10509474642979"}}, "geometry": {"type": "Point", "coordinates": [-44.114816218065286, -57.73692915922098]}}, {"type": "Feature", "properties": {"norad_id": 40799, "name": "COSMOS 2251 DEB", "group": "cosmos-2251-debris", "lat": -44.52531597400123, "lon": -52.075498703726694, "alt_km": 634.0536423578606, "timestamp": "2025-12-06T07:31:40.634232+00:00", "meta": {"OBJECT_NAME": "COSMOS 2251 DEB", "OBJECT_ID": "1993-036BWC", "EPOCH": "2025-12-03T15:56:34.043424", "MEAN_MOTION": 14.96530915, "ECCENTRICITY": 0.0118644, "INCLINATION": 73.9247, "RA_OF_ASC_NODE": 116.8388, "ARG_OF_PERICENTER": 0.7827, "MEAN_ANOMALY": 359.3519, "EPHEMERIS_TYPE": 0, "CLASSIFICATION_TYPE": "U", "NORAD_CAT_ID": 40799, "ELEMENT_SET_NO": 999, "REV_AT_EPOCH": 49841, "BSTAR": 0.00050356325, "MEAN_MOTION_DOT": 6.569e-05, "MEAN_MOTION_DDOT": 0}, "tle": {"line1": "1 40799U 93036BWC 25337.66428291  .00006569  00000+0  50356-3 0  9995", "line2": "2 40799  73.9247 116.8388 0118644   0.7827 359.3519 14.96530915498410"}}, "geometry": {"type": "Point", "coordinates": [-52.075498703726694, -44.52531597400123]}}, {"type": "Feature", "properties": {"norad_id": 40802, "name": "COSMOS 2251 DEB", "group": "cosmos-2251-debris", "lat": -4.016864772454395, "lon": 164.46862156885177, "alt_km": 640.4670804230072, "timestamp": "2025-12-06T07:31:40.634243+00:00", "meta": {"OBJECT_NAME": "COSMOS 2251 DEB", "OBJECT_ID": "1993-036BWF", "EPOCH": "2025-12-03T19:25:10.185888", "MEAN_MOTION": 14.77466187, "ECCENTRICITY": 0.00634015, "INCLINATION": 74.0391, "RA_OF_ASC_NODE": 170.5311, "ARG_OF_PERICENTER": 271.0455, "MEAN_ANOMALY": 88.3457, "EPHEMERIS_TYPE": 0, "CLASSIFICATION_TYPE": "U", "NORAD_CAT_ID": 40802, "ELEMENT_SET_NO": 999, "REV_AT_EPOCH": 64277, "BSTAR": 0.00093875569, "MEAN_MOTION_DOT": 6.888e-05, "MEAN_MOTION_DDOT": 0}, "tle": {"line1": "1 40802U 93036BWF 25337.80914567  .00006888  00000+0  93876-3 0  9990", "line2": "2 40802  74.0391 170.5311 0063401 271.0455  88.3457 14.77466187642778"}}, "geometry": {"type": "Point", "coordinates": [164.46862156885177, -4.016864772454395]}}, {"type": "Feature", "properties": {"norad_id": 40803, "name": "COSMOS 2251 DEB", "group": "cosmos-2251-debris", "lat": 66.44083933472844, "lon": 105.13085502702322, "alt_km": 734.509406673219, "timestamp": "2025-12-06T07:31:40.634254+00:00", "meta": {"OBJECT_NAME": "COSMOS 2251 DEB", "OBJECT_ID": "1993-036BWG", "EPOCH": "2025-11-28T13:57:57.324672", "MEAN_MOTION": 14.51758448, "ECCENTRICITY": 0.00344541, "INCLINATION": 74.0129, "RA_OF_ASC_NODE": 78.5975, "ARG_OF_PERICENTER": 297.2945, "MEAN_ANOMALY": 62.4709, "EPHEMERIS_TYPE": 0, "CLASSIFICATION_TYPE": "U", "NORAD_CAT_ID": 40803, "ELEMENT_SET_NO": 999, "REV_AT_EPOCH": 58547, "BSTAR": 0.00037309243, "MEAN_MOTION_DOT": 1.482e-05, "MEAN_MOTION_DDOT": 0}, "tle": {"line1": "1 40803U 93036BWG 25332.58191348  .00001482  00000+0  37309-3 0  9999", "line2": "2 40803  74.0129  78.5975 0034454 297.2945  62.4709 14.51758448585473"}}, "geometry": {"type": "Point", "coordinates": [105.13085502702322, 66.44083933472844]}}, {"type": "Feature", "properties": {"norad_id": 40808, "name": "COSMOS 2251 DEB", "group": "cosmos-2251-debris", "lat": -12.273003391692823, "lon": 154.30501997226682, "alt_km": 680.0581093709643, "timestamp": "2025-12-06T07:31:40.634264+00:00", "meta": {"OBJECT_NAME": "COSMOS 2251 DEB", "OBJECT_ID": "1993-036BWM", "EPOCH": "2025-12-05T06:11:20.563296", "MEAN_MOTION": 14.67267359, "ECCENTRICITY": 0.00099915, "INCLINATION": 74.0403, "RA_OF_ASC_NODE": 159.911, "ARG_OF_PERICENTER": 196.7449, "MEAN_ANOMALY": 335.9444, "EPHEMERIS_TYPE": 0, "CLASSIFICATION_TYPE": "U", "NORAD_CAT_ID": 40808, "ELEMENT_SET_NO": 999, "REV_AT_EPOCH": 63509, "BSTAR": 0.0029616535, "MEAN_MOTION_DOT": 0.00016721, "MEAN_MOTION_DDOT": 0}, "tle": {"line1": "1 40808U 93036BWM 25339.25787689  .00016721  00000+0  29617-2 0  9998", "line2": "2 40808  74.0403 159.9110 0009991 196.7449 335.9444 14.67267359635099"}}, "geometry": {"type": "Point", "coordinates": [154.30501997226682, -12.273003391692823]}}, {"type": "Feature", "properties": {"norad_id": 40810, "name": "COSMOS 2251 DEB", "group": "cosmos-2251-debris", "lat": 67.82638249026974, "lon": -137.6443479632279, "alt_km": 699.5794961979964, "timestamp": "2025-12-06T07:31:40.634275+00:00", "meta": {"OBJECT_NAME": "COSMOS 2251 DEB", "OBJECT_ID": "1993-036BWP", "EPOCH": "2025-12-02T07:34:18.151104", "MEAN_MOTION": 14.58589191, "ECCENTRICITY": 0.00187807, "INCLINATION": 74.0355, "RA_OF_ASC_NODE": 94.5842, "ARG_OF_PERICENTER": 246.5096, "MEAN_ANOMALY": 113.4096, "EPHEMERIS_TYPE": 0, "CLASSIFICATION_TYPE": "U", "NORAD_CAT_ID": 40810, "ELEMENT_SET_NO": 999, "REV_AT_EPOCH": 61531, "BSTAR": 0.001131408, "MEAN_MOTION_DOT": 5.252e-05, "MEAN_MOTION_DDOT": 0}, "tle": {"line1": "1 40810U 93036BWP 25336.31548786  .00005252  00000+0  11314-2 0  9990", "line2": "2 40810  74.0355  94.5842 0018780 246.5096 113.4096 14.58589191615318"}}, "geometry": {"type": "Point", "coordinates": [-137.6443479632279, 67.82638249026974]}}, {"type": "Feature", "properties": {"norad_id": 46271, "name": "COSMOS 2251 DEB", "group": "cosmos-2251-debris", "lat": 25.94746380146538, "lon": -97.69822776140597, "alt_km": 705.3731642380571, "timestamp": "2025-12-06T07:31:40.634285+00:00", "meta": {"OBJECT_NAME": "COSMOS 2251 DEB", "OBJECT_ID": "1993-036BWT", "EPOCH": "2025-12-02T01:54:44.684640", "MEAN_MOTION": 14.51374966, "ECCENTRICITY": 0.00407046, "INCLINATION": 74.046, "RA_OF_ASC_NODE": 98.2636, "ARG_OF_PERICENTER": 221.9387, "MEAN_ANOMALY": 137.8656, "EPHEMERIS_TYPE": 0, "CLASSIFICATION_TYPE": "U", "NORAD_CAT_ID": 46271, "ELEMENT_SET_NO": 999, "REV_AT_EPOCH": 84487, "BSTAR": 0.0004698569, "MEAN_MOTION_DOT": 1.865e-05, "MEAN_MOTION_DDOT": 0}, "tle": {"line1": "1 46271U 93036BWT 25336.07968385  .00001865  00000+0  46986-3 0  9991", "line2": "2 46271  74.0460  98.2636 0040704 221.9387 137.8656 14.51374966844877"}}, "geometry": {"type": "Point", "coordinates": [-97.69822776140597, 25.94746380146538]}}]}